STARLINK-35925          
1 66887U 25283K   25365.22192037  .00103761  00000+0  18457-2 0  9996
2 66887  53.1602 342.7455 0001217 106.8397 253.2746 15.49360357  5354
STARLINK-35919          
1 66888U 25283L   25365.22157940  .00092153  00000+0  16433-2 0  9995
2 66888  53.1600 342.7411 0001489  74.8857 285.2317 15.49345974  5358
STARLINK-35852          
1 66889U 25283M   25365.28523297  .05084319  00000+0  67649-1 0  9998
2 66889  53.1592 342.4280 0016760 295.0972  64.8300 15.53492178  5361
STARLINK-35885          
1 66890U 25283N   25365.09196199  .00118300  00000+0  21088-2 0  9997
2 66890  53.1601 343.3568 0014703 247.3305 112.6149 15.49121511  5333
STARLINK-35855          
1 66891U 25283P   25365.22054801  .00095196  00000+0  16979-2 0  9996
2 66891  53.1603 342.7353 0001303  81.2923 278.8233 15.49325496  5353
STARLINK-35883          
1 66892U 25283Q   25365.22020431  .00100145  00000+0  17838-2 0  9995
2 66892  53.1602 342.7330 0001167  89.0919 271.0224 15.49339393  5353
STARLINK-36033          
1 66893U 25283R   25365.25002315 -.02052645  00000+0 -48787-1 0  9991
2 66893  53.1595 342.6037 0001443  77.4736  82.2713 15.44640896  5402
STARLINK-35718          
1 66894U 25283S   25365.21951671  .00096662  00000+0  17222-2 0  9990
2 66894  53.1599 342.7294 0000886  80.3210 279.7899 15.49348445  5355
STARLINK-35971          
1 66895U 25283T   25365.21893040  .00118750  00000+0  21820-2 0  9998
2 66895  53.1600 342.7233 0006702   7.6723 352.4387 15.48342859  5359
STARLINK-35791          
1 66896U 25283U   25365.21917499  .00101404  00000+0  18059-2 0  9992
2 66896  53.1603 342.7250 0001166  67.7433 292.3700 15.49337185  5354
STARLINK-36079          
1 66897U 25283V   25365.21858094 -.00309674  00000+0 -58980-2 0  9996
2 66897  53.1600 342.7213 0000729  72.8513 287.2576 15.48752676  5350
STARLINK-36065          
1 66898U 25283W   25365.21814452  .00105289  00000+0  18734-2 0  9994
2 66898  53.1604 342.7184 0001378  48.4898 311.6229 15.49343765  5351
