CCSDS_OMM_VERS = 2.0
CREATION_DATE  = 
ORIGINATOR     = 

OBJECT_NAME    = STARLINK-35925
OBJECT_ID      = 2025-283K
CENTER_NAME    = EARTH
REF_FRAME      = TEME
TIME_SYSTEM    = UTC
MEAN_ELEMENT_THEORY = SGP/SGP4

EPOCH          = 2025-12-31T05:19:33.919968
MEAN_MOTION    = 15.49360357
ECCENTRICITY   = .00012172
INCLINATION    = 53.1602
RA_OF_ASC_NODE = 342.7455
ARG_OF_PERICENTER = 106.8397
MEAN_ANOMALY   = 253.2746

EPHEMERIS_TYPE = 0
CLASSIFICATION_TYPE = U
NORAD_CAT_ID   = 66887
ELEMENT_SET_NO = 999
REV_AT_EPOCH   = 535
BSTAR          = .18456673E-2
MEAN_MOTION_DOT = .103761E-2
MEAN_MOTION_DDOT = 0

CCSDS_OMM_VERS = 2.0
CREATION_DATE  = 
ORIGINATOR     = 

OBJECT_NAME    = STARLINK-35919
OBJECT_ID      = 2025-283L
CENTER_NAME    = EARTH
REF_FRAME      = TEME
TIME_SYSTEM    = UTC
MEAN_ELEMENT_THEORY = SGP/SGP4

EPOCH          = 2025-12-31T05:19:04.460160
MEAN_MOTION    = 15.49345974
ECCENTRICITY   = .00014893
INCLINATION    = 53.1600
RA_OF_ASC_NODE = 342.7411
ARG_OF_PERICENTER = 74.8857
MEAN_ANOMALY   = 285.2317

EPHEMERIS_TYPE = 0
CLASSIFICATION_TYPE = U
NORAD_CAT_ID   = 66888
ELEMENT_SET_NO = 999
REV_AT_EPOCH   = 535
BSTAR          = .16433422E-2
MEAN_MOTION_DOT = .92153E-3
MEAN_MOTION_DDOT = 0

CCSDS_OMM_VERS = 2.0
CREATION_DATE  = 
ORIGINATOR     = 

OBJECT_NAME    = STARLINK-35852
OBJECT_ID      = 2025-283M
CENTER_NAME    = EARTH
REF_FRAME      = TEME
TIME_SYSTEM    = UTC
MEAN_ELEMENT_THEORY = SGP/SGP4

EPOCH          = 2025-12-31T06:50:44.128608
MEAN_MOTION    = 15.53492178
ECCENTRICITY   = .00167607
INCLINATION    = 53.1592
RA_OF_ASC_NODE = 342.4280
ARG_OF_PERICENTER = 295.0972
MEAN_ANOMALY   = 64.8300

EPHEMERIS_TYPE = 0
CLASSIFICATION_TYPE = U
NORAD_CAT_ID   = 66889
ELEMENT_SET_NO = 999
REV_AT_EPOCH   = 536
BSTAR          = .67649201E-1
MEAN_MOTION_DOT = .5084319E-1
MEAN_MOTION_DDOT = 0

CCSDS_OMM_VERS = 2.0
CREATION_DATE  = 
ORIGINATOR     = 

OBJECT_NAME    = STARLINK-35885
OBJECT_ID      = 2025-283N
CENTER_NAME    = EARTH
REF_FRAME      = TEME
TIME_SYSTEM    = UTC
MEAN_ELEMENT_THEORY = SGP/SGP4

EPOCH          = 2025-12-31T02:12:25.515936
MEAN_MOTION    = 15.49121511
ECCENTRICITY   = .00147039
INCLINATION    = 53.1601
RA_OF_ASC_NODE = 343.3568
ARG_OF_PERICENTER = 247.3305
MEAN_ANOMALY   = 112.6149

EPHEMERIS_TYPE = 0
CLASSIFICATION_TYPE = U
NORAD_CAT_ID   = 66890
ELEMENT_SET_NO = 999
REV_AT_EPOCH   = 533
BSTAR          = .21087546E-2
MEAN_MOTION_DOT = .1183E-2
MEAN_MOTION_DDOT = 0

CCSDS_OMM_VERS = 2.0
CREATION_DATE  = 
ORIGINATOR     = 

OBJECT_NAME    = STARLINK-35855
OBJECT_ID      = 2025-283P
CENTER_NAME    = EARTH
REF_FRAME      = TEME
TIME_SYSTEM    = UTC
MEAN_ELEMENT_THEORY = SGP/SGP4

EPOCH          = 2025-12-31T05:17:35.348064
MEAN_MOTION    = 15.49325496
ECCENTRICITY   = .00013031
INCLINATION    = 53.1603
RA_OF_ASC_NODE = 342.7353
ARG_OF_PERICENTER = 81.2923
MEAN_ANOMALY   = 278.8233

EPHEMERIS_TYPE = 0
CLASSIFICATION_TYPE = U
NORAD_CAT_ID   = 66891
ELEMENT_SET_NO = 999
REV_AT_EPOCH   = 535
BSTAR          = .16979161E-2
MEAN_MOTION_DOT = .95196E-3
MEAN_MOTION_DDOT = 0

CCSDS_OMM_VERS = 2.0
CREATION_DATE  = 
ORIGINATOR     = 

OBJECT_NAME    = STARLINK-35883
OBJECT_ID      = 2025-283Q
CENTER_NAME    = EARTH
REF_FRAME      = TEME
TIME_SYSTEM    = UTC
MEAN_ELEMENT_THEORY = SGP/SGP4

EPOCH          = 2025-12-31T05:17:05.652384
MEAN_MOTION    = 15.49339393
ECCENTRICITY   = .00011677
INCLINATION    = 53.1602
RA_OF_ASC_NODE = 342.7330
ARG_OF_PERICENTER = 89.0919
MEAN_ANOMALY   = 271.0224

EPHEMERIS_TYPE = 0
CLASSIFICATION_TYPE = U
NORAD_CAT_ID   = 66892
ELEMENT_SET_NO = 999
REV_AT_EPOCH   = 535
BSTAR          = .17837634E-2
MEAN_MOTION_DOT = .100145E-2
MEAN_MOTION_DDOT = 0

CCSDS_OMM_VERS = 2.0
CREATION_DATE  = 
ORIGINATOR     = 

OBJECT_NAME    = STARLINK-36033
OBJECT_ID      = 2025-283R
CENTER_NAME    = EARTH
REF_FRAME      = TEME
TIME_SYSTEM    = UTC
MEAN_ELEMENT_THEORY = SGP/SGP4

EPOCH          = 2025-12-31T06:00:02.000160
MEAN_MOTION    = 15.44640896
ECCENTRICITY   = .0001443
INCLINATION    = 53.1595
RA_OF_ASC_NODE = 342.6037
ARG_OF_PERICENTER = 77.4736
MEAN_ANOMALY   = 82.2713

EPHEMERIS_TYPE = 0
CLASSIFICATION_TYPE = U
NORAD_CAT_ID   = 66893
ELEMENT_SET_NO = 999
REV_AT_EPOCH   = 540
BSTAR          = -.48787274E-1
MEAN_MOTION_DOT = -.2052645E-1
MEAN_MOTION_DDOT = 0

CCSDS_OMM_VERS = 2.0
CREATION_DATE  = 
ORIGINATOR     = 

OBJECT_NAME    = STARLINK-35718
OBJECT_ID      = 2025-283S
CENTER_NAME    = EARTH
REF_FRAME      = TEME
TIME_SYSTEM    = UTC
MEAN_ELEMENT_THEORY = SGP/SGP4

EPOCH          = 2025-12-31T05:16:06.243744
MEAN_MOTION    = 15.49348445
ECCENTRICITY   = .00008868
INCLINATION    = 53.1599
RA_OF_ASC_NODE = 342.7294
ARG_OF_PERICENTER = 80.3210
MEAN_ANOMALY   = 279.7899

EPHEMERIS_TYPE = 0
CLASSIFICATION_TYPE = U
NORAD_CAT_ID   = 66894
ELEMENT_SET_NO = 999
REV_AT_EPOCH   = 535
BSTAR          = .17222261E-2
MEAN_MOTION_DOT = .96662E-3
MEAN_MOTION_DDOT = 0

CCSDS_OMM_VERS = 2.0
CREATION_DATE  = 
ORIGINATOR     = 

OBJECT_NAME    = STARLINK-35971
OBJECT_ID      = 2025-283T
CENTER_NAME    = EARTH
REF_FRAME      = TEME
TIME_SYSTEM    = UTC
MEAN_ELEMENT_THEORY = SGP/SGP4

EPOCH          = 2025-12-31T05:15:15.586560
MEAN_MOTION    = 15.48342859
ECCENTRICITY   = .00067026
INCLINATION    = 53.1600
RA_OF_ASC_NODE = 342.7233
ARG_OF_PERICENTER = 7.6723
MEAN_ANOMALY   = 352.4387

EPHEMERIS_TYPE = 0
CLASSIFICATION_TYPE = U
NORAD_CAT_ID   = 66895
ELEMENT_SET_NO = 999
REV_AT_EPOCH   = 535
BSTAR          = .21820357E-2
MEAN_MOTION_DOT = .11875E-2
MEAN_MOTION_DDOT = 0

CCSDS_OMM_VERS = 2.0
CREATION_DATE  = 
ORIGINATOR     = 

OBJECT_NAME    = STARLINK-35791
OBJECT_ID      = 2025-283U
CENTER_NAME    = EARTH
REF_FRAME      = TEME
TIME_SYSTEM    = UTC
MEAN_ELEMENT_THEORY = SGP/SGP4

EPOCH          = 2025-12-31T05:15:36.719136
MEAN_MOTION    = 15.49337185
ECCENTRICITY   = .0001166
INCLINATION    = 53.1603
RA_OF_ASC_NODE = 342.7250
ARG_OF_PERICENTER = 67.7433
MEAN_ANOMALY   = 292.3700

EPHEMERIS_TYPE = 0
CLASSIFICATION_TYPE = U
NORAD_CAT_ID   = 66896
ELEMENT_SET_NO = 999
REV_AT_EPOCH   = 535
BSTAR          = .18059293E-2
MEAN_MOTION_DOT = .101404E-2
MEAN_MOTION_DDOT = 0

CCSDS_OMM_VERS = 2.0
CREATION_DATE  = 
ORIGINATOR     = 

OBJECT_NAME    = STARLINK-36079
OBJECT_ID      = 2025-283V
CENTER_NAME    = EARTH
REF_FRAME      = TEME
TIME_SYSTEM    = UTC
MEAN_ELEMENT_THEORY = SGP/SGP4

EPOCH          = 2025-12-31T05:14:45.393216
MEAN_MOTION    = 15.48752676
ECCENTRICITY   = .00007296
INCLINATION    = 53.1600
RA_OF_ASC_NODE = 342.7213
ARG_OF_PERICENTER = 72.8513
MEAN_ANOMALY   = 287.2576

EPHEMERIS_TYPE = 0
CLASSIFICATION_TYPE = U
NORAD_CAT_ID   = 66897
ELEMENT_SET_NO = 999
REV_AT_EPOCH   = 535
BSTAR          = -.58980209E-2
MEAN_MOTION_DOT = -.309674E-2
MEAN_MOTION_DDOT = 0

CCSDS_OMM_VERS = 2.0
CREATION_DATE  = 
ORIGINATOR     = 

OBJECT_NAME    = STARLINK-36065
OBJECT_ID      = 2025-283W
CENTER_NAME    = EARTH
REF_FRAME      = TEME
TIME_SYSTEM    = UTC
MEAN_ELEMENT_THEORY = SGP/SGP4

EPOCH          = 2025-12-31T05:14:07.686528
MEAN_MOTION    = 15.49343765
ECCENTRICITY   = .00013782
INCLINATION    = 53.1604
RA_OF_ASC_NODE = 342.7184
ARG_OF_PERICENTER = 48.4898
MEAN_ANOMALY   = 311.6229

EPHEMERIS_TYPE = 0
CLASSIFICATION_TYPE = U
NORAD_CAT_ID   = 66898
ELEMENT_SET_NO = 999
REV_AT_EPOCH   = 535
BSTAR          = .18734445E-2
MEAN_MOTION_DOT = .105289E-2
MEAN_MOTION_DDOT = 0

